{
  "type": "FeatureCollection",
  "features": [
    {
      "type": "Feature",
      "properties": {
        "norad_id": 31922,
        "name": "FENGYUN 1C DEB",
        "group": "fengyun-1c-debris",
        "lat": 8.083447837297536,
        "lon": 170.3359638082192,
        "alt_km": 1060.0883904910297,
        "timestamp": "2025-12-24T07:45:06.484878+00:00",
        "meta_object_name": "FENGYUN 1C DEB",
        "meta_object_id": "1999-025CLZ",
        "meta_epoch": "2025-12-23T22:31:25.547232",
        "meta_mean_motion": 13.86647515,
        "meta_eccentricity": 0.01613995,
        "meta_inclination": 98.8064,
        "meta_ra_of_asc_node": 348.7123,
        "meta_arg_of_pericenter": 356.0844,
        "meta_mean_anomaly": 57.1531,
        "meta_ephemeris_type": 0,
        "meta_classification_type": "U",
        "meta_norad_cat_id": 31922,
        "meta_element_set_no": 999,
        "meta_rev_at_epoch": 93172,
        "meta_bstar": 0.0015152574,
        "meta_mean_motion_dot": 1.912e-05,
        "meta_mean_motion_ddot": 0,
        "tle_line1": "1 31922U 99025CLZ 25357.93849013  .00001912  00000+0  15153-2 0  9990",
        "tle_line2": "2 31922  98.8064 348.7123 0161399 356.0844  57.1531 13.86647515931721"
      },
      "geometry": {
        "type": "Point",
        "coordinates": [
          170.3359638082192,
          8.083447837297536
        ]
      }
    },
    {
      "type": "Feature",
      "properties": {
        "norad_id": 31923,
        "name": "FENGYUN 1C DEB",
        "group": "fengyun-1c-debris",
        "lat": 62.11206831705359,
        "lon": -73.31592949292794,
        "alt_km": 1252.5781287566442,
        "timestamp": "2025-12-24T07:45:06.484888+00:00",
        "meta_object_name": "FENGYUN 1C DEB",
        "meta_object_id": "1999-025CMA",
        "meta_epoch": "2025-12-20T05:40:47.009280",
        "meta_mean_motion": 13.54908967,
        "meta_eccentricity": 0.0300717,
        "meta_inclination": 98.4358,
        "meta_ra_of_asc_node": 86.9011,
        "meta_arg_of_pericenter": 284.1241,
        "meta_mean_anomaly": 72.6659,
        "meta_ephemeris_type": 0,
        "meta_classification_type": "U",
        "meta_norad_cat_id": 31923,
        "meta_element_set_no": 999,
        "meta_rev_at_epoch": 63736,
        "meta_bstar": 0.0012343,
        "meta_mean_motion_dot": 1.096e-05,
        "meta_mean_motion_ddot": 0,
        "tle_line1": "1 31923U 99025CMA 25354.23665520  .00001096  00000+0  12343-2 0  9991",
        "tle_line2": "2 31923  98.4358  86.9011 0300717 284.1241  72.6659 13.54908967637364"
      },
      "geometry": {
        "type": "Point",
        "coordinates": [
          -73.31592949292794,
          62.11206831705359
        ]
      }
    },
    {
      "type": "Feature",
      "properties": {
        "norad_id": 31924,
        "name": "FENGYUN 1C DEB",
        "group": "fengyun-1c-debris",
        "lat": 39.46441247231651,
        "lon": 147.12708814076,
        "alt_km": 836.2242615421201,
        "timestamp": "2025-12-24T07:45:06.484898+00:00",
        "meta_object_name": "FENGYUN 1C DEB",
        "meta_object_id": "1999-025CMB",
        "meta_epoch": "2025-12-19T09:36:23.607072",
        "meta_mean_motion": 13.63925419,
        "meta_eccentricity": 0.0272605,
        "meta_inclination": 98.4004,
        "meta_ra_of_asc_node": 149.8539,
        "meta_arg_of_pericenter": 79.2769,
        "meta_mean_anomaly": 283.8942,
        "meta_ephemeris_type": 0,
        "meta_classification_type": "U",
        "meta_norad_cat_id": 31924,
        "meta_element_set_no": 999,
        "meta_rev_at_epoch": 91558,
        "meta_bstar": 0.0010228,
        "meta_mean_motion_dot": 1.012e-05,
        "meta_mean_motion_ddot": 0,
        "tle_line1": "1 31924U 99025CMB 25353.40027323  .00001012  00000+0  10228-2 0  9991",
        "tle_line2": "2 31924  98.4004 149.8539 0272605  79.2769 283.8942 13.63925419915584"
      },
      "geometry": {
        "type": "Point",
        "coordinates": [
          147.12708814076,
          39.46441247231651
        ]
      }
    },
    {
      "type": "Feature",
      "properties": {
        "norad_id": 31926,
        "name": "FENGYUN 1C DEB",
        "group": "fengyun-1c-debris",
        "lat": 17.007742081010488,
        "lon": 91.14230110975087,
        "alt_km": 815.7156446699892,
        "timestamp": "2025-12-24T07:45:06.484908+00:00",
        "meta_object_name": "FENGYUN 1C DEB",
        "meta_object_id": "1999-025CMD",
        "meta_epoch": "2025-12-21T17:34:26.622912",
        "meta_mean_motion": 14.30822886,
        "meta_eccentricity": 0.00399933,
        "meta_inclination": 98.957,
        "meta_ra_of_asc_node": 91.2393,
        "meta_arg_of_pericenter": 227.9748,
        "meta_mean_anomaly": 131.8026,
        "meta_ephemeris_type": 0,
        "meta_classification_type": "U",
        "meta_norad_cat_id": 31926,
        "meta_element_set_no": 999,
        "meta_rev_at_epoch": 95356,
        "meta_bstar": 0.0018185713,
        "meta_mean_motion_dot": 4.765e-05,
        "meta_mean_motion_ddot": 0,
        "tle_line1": "1 31926U 99025CMD 25355.73225258  .00004765  00000+0  18186-2 0  9997",
        "tle_line2": "2 31926  98.9570  91.2393 0039993 227.9748 131.8026 14.30822886953561"
      },
      "geometry": {
        "type": "Point",
        "coordinates": [
          91.14230110975087,
          17.007742081010488
        ]
      }
    },
    {
      "type": "Feature",
      "properties": {
        "norad_id": 31929,
        "name": "FENGYUN 1C DEB",
        "group": "fengyun-1c-debris",
        "lat": -72.07317434759875,
        "lon": 156.4638521149883,
        "alt_km": 787.1991287118044,
        "timestamp": "2025-12-24T07:45:06.484918+00:00",
        "meta_object_name": "FENGYUN 1C DEB",
        "meta_object_id": "1999-025CME",
        "meta_epoch": "2025-12-22T02:32:39.971616",
        "meta_mean_motion": 14.34959053,
        "meta_eccentricity": 0.00738159,
        "meta_inclination": 98.792,
        "meta_ra_of_asc_node": 125.6264,
        "meta_arg_of_pericenter": 27.8145,
        "meta_mean_anomaly": 332.6956,
        "meta_ephemeris_type": 0,
        "meta_classification_type": "U",
        "meta_norad_cat_id": 31929,
        "meta_element_set_no": 999,
        "meta_rev_at_epoch": 70780,
        "meta_bstar": 0.00037508809,
        "meta_mean_motion_dot": 1.055e-05,
        "meta_mean_motion_ddot": 0,
        "tle_line1": "1 31929U 99025CME 25356.10601819  .00001055  00000+0  37509-3 0  9993",
        "tle_line2": "2 31929  98.7920 125.6264 0073815  27.8145 332.6956 14.34959053707807"
      },
      "geometry": {
        "type": "Point",
        "coordinates": [
          156.4638521149883,
          -72.07317434759875
        ]
      }
    },
    {
      "type": "Feature",
      "properties": {
        "norad_id": 31931,
        "name": "FENGYUN 1C DEB",
        "group": "fengyun-1c-debris",
        "lat": 40.8766554107854,
        "lon": 133.04524468783657,
        "alt_km": 1142.8894833956301,
        "timestamp": "2025-12-24T07:45:06.484928+00:00",
        "meta_object_name": "FENGYUN 1C DEB",
        "meta_object_id": "1999-025CMG",
        "meta_epoch": "2025-12-23T02:24:09.253440",
        "meta_mean_motion": 13.42631589,
        "meta_eccentricity": 0.0422514,
        "meta_inclination": 97.8147,
        "meta_ra_of_asc_node": 305.2675,
        "meta_arg_of_pericenter": 242.6444,
        "meta_mean_anomaly": 113.1098,
        "meta_ephemeris_type": 0,
        "meta_classification_type": "U",
        "meta_norad_cat_id": 31931,
        "meta_element_set_no": 999,
        "meta_rev_at_epoch": 65361,
        "meta_bstar": 0.00051347655,
        "meta_mean_motion_dot": 4.63e-06,
        "meta_mean_motion_ddot": 0,
        "tle_line1": "1 31931U 99025CMG 25357.10010710  .00000463  00000+0  51348-3 0  9990",
        "tle_line2": "2 31931  97.8147 305.2675 0422514 242.6444 113.1098 13.42631589653613"
      },
      "geometry": {
        "type": "Point",
        "coordinates": [
          133.04524468783657,
          40.8766554107854
        ]
      }
    },
    {
      "type": "Feature",
      "properties": {
        "norad_id": 31934,
        "name": "FENGYUN 1C DEB",
        "group": "fengyun-1c-debris",
        "lat": 80.23259875737253,
        "lon": -15.835050982881194,
        "alt_km": 543.5245226069501,
        "timestamp": "2025-12-24T07:45:06.484938+00:00",
        "meta_object_name": "FENGYUN 1C DEB",
        "meta_object_id": "1999-025CMK",
        "meta_epoch": "2025-12-17T14:29:22.520832",
        "meta_mean_motion": 15.0735698,
        "meta_eccentricity": 0.00367266,
        "meta_inclination": 98.8801,
        "meta_ra_of_asc_node": 41.6776,
        "meta_arg_of_pericenter": 217.4543,
        "meta_mean_anomaly": 142.4121,
        "meta_ephemeris_type": 0,
        "meta_classification_type": "U",
        "meta_norad_cat_id": 31934,
        "meta_element_set_no": 999,
        "meta_rev_at_epoch": 60916,
        "meta_bstar": 0.0026504952,
        "meta_mean_motion_dot": 0.00040819,
        "meta_mean_motion_ddot": 0,
        "tle_line1": "1 31934U 99025CMK 25351.60373288  .00040819  00000+0  26505-2 0  9999",
        "tle_line2": "2 31934  98.8801  41.6776 0036726 217.4543 142.4121 15.07356980609168"
      },
      "geometry": {
        "type": "Point",
        "coordinates": [
          -15.835050982881194,
          80.23259875737253
        ]
      }
    }
  ]
}